OBJECT_NAME,OBJECT_ID,EPOCH,MEAN_MOTION,ECCENTRICITY,INCLINATION,RA_OF_ASC_NODE,ARG_OF_PERICENTER,MEAN_ANOMALY,EPHEMERIS_TYPE,CLASSIFICATION_TYPE,NORAD_CAT_ID,ELEMENT_SET_NO,REV_AT_EPOCH,BSTAR,MEAN_MOTION_DOT,MEAN_MOTION_DDOT
BEIDOU-2 G8 (C01),2019-027A,2026-06-11T07:05:17.952288,1.00273096,.00103533,1.6418,74.4980,283.3954,152.6134,0,U,44231,999,2602,0,-.23E-5,0
COSMOS 2534 (758),2019-030A,2026-06-11T03:18:24.713856,2.13102347,.00133473,64.3681,192.8202,275.1444,263.0690,0,U,44299,999,5479,0,.12E-5,0
BEIDOU-3 IGSO-2 (C39),2019-035A,2026-06-10T23:54:00.220032,1.00268507,.0039933,55.2455,158.9168,216.3389,2.4216,0,U,44337,999,2560,0,-.37E-6,0
GPS BIII-2  (PRN 18),2019-056A,2026-06-10T22:08:00.921696,2.00569440,.00617455,55.6404,331.3920,197.5539,346.1380,0,U,44506,999,4994,0,-.63E-6,0
BEIDOU-3 M24 (C46),2019-061A,2026-06-10T19:10:36.194592,1.86229290,.00082724,54.3961,182.9435,359.0327,1.0298,0,U,44542,999,4567,0,.128E-5,0
BEIDOU-3 M23 (C45),2019-061B,2026-06-11T04:51:43.909056,1.86227378,.00056091,54.3946,182.8982,337.6908,204.5715,0,U,44543,999,4568,0,.129E-5,0
EUTELSAT 5 WEST B (EGNOS/PRN 121),2019-067A,2026-06-11T04:40:00.033312,1.00271909,.00030107,0.0627,352.3032,87.6177,244.6382,0,U,44624,999,2437,0,-.25E-6,0
BEIDOU-3 IGSO-3 (C40),2019-073A,2026-05-16T19:27:04.075776,1.00246251,.0042953,54.8566,281.2355,189.4588,170.3676,0,U,44709,999,2414,0,-.217E-5,0
BEIDOU-3 M22 (C44),2019-078A,2026-06-09T13:33:18.404640,1.86227604,.0006476,53.9433,300.0965,49.2798,310.7668,0,U,44793,999,4450,0,-.61E-6,0
BEIDOU-3 M21 (C43),2019-078B,2026-06-08T15:08:22.826400,1.86228036,.00043947,53.9173,300.0906,47.4319,312.5973,0,U,44794,999,4449,0,-.59E-6,0
COSMOS 2544 (759),2019-088A,2026-06-09T23:46:15.168576,2.13102164,.00134315,65.5614,73.9710,259.4785,100.3880,0,U,44850,999,5056,0,-.23E-6,0
BEIDOU-3 M19 (C41),2019-090A,2026-06-06T10:56:36.782592,1.86231867,.00181153,56.5493,63.1460,297.5322,241.6390,0,U,44864,999,4403,0,-.38E-6,0
BEIDOU-3 M20 (C42),2019-090B,2026-06-10T02:22:05.520864,1.86231666,.00159258,56.5539,63.0605,311.2740,239.7297,0,U,44865,999,4408,0,-.5E-6,0
BEIDOU-3 G2 (C60),2020-017A,2026-06-11T03:21:39.403296,1.00273157,.00023713,2.8509,47.2428,31.5276,311.1998,0,U,45344,999,2319,0,-.125E-5,0
COSMOS 2545 (760),2020-018A,2026-06-11T02:58:33.233664,2.13102701,.00080635,64.3590,312.6322,231.3813,128.5392,0,U,45358,999,4853,0,-.43E-6,0
BEIDOU-3 G3 (C61),2020-040A,2026-06-11T01:47:42.391680,1.00270320,.00026871,2.4310,67.4331,338.6905,350.8043,0,U,45807,999,2200,0,-.337E-5,0
GPS BIII-3  (PRN 23),2020-041A,2026-06-10T12:13:09.899040,2.00558724,.00635858,56.6651,29.2031,204.6514,339.4495,0,U,45854,999,4390,0,-.64E-6,0
GALAXY 30 (WAAS/PRN 135),2020-056C,2026-06-11T05:48:25.818336,1.00273396,.00019527,0.0018,1.2399,75.7680,144.7071,0,U,46114,999,2123,0,.54E-6,0
COSMOS 2547 (705K),2020-075A,2026-06-10T08:59:58.072416,2.13100322,.00092397,64.5990,192.7030,239.7771,120.2054,0,U,46805,999,4376,0,.116E-5,0
GPS BIII-4  (PRN 14),2020-078A,2026-06-11T06:49:15.409632,2.00564772,.0073334,53.9805,211.0184,207.0647,152.7945,0,U,46826,999,4139,0,.85E-6,0
GPS BIII-5  (PRN 11),2021-054A,2026-06-10T23:43:45.749280,2.00569255,.00252862,55.1777,332.7092,228.5378,104.1627,0,U,48859,999,3662,0,-.64E-6,0
QZS-1R (QZSS/PRN 196),2021-096A,2026-06-10T15:36:03.245184,1.00257812,.07543935,37.4481,79.6817,271.6562,276.0833,0,U,49336,999,1694,0,-.241E-5,0
GSAT0223 (GALILEO 27),2021-116A,2026-06-11T03:10:17.992416,1.70475860,.00014044,57.1623,341.8389,187.4451,176.2704,0,U,49809,999,2808,0,-.65E-6,0
GSAT0224 (GALILEO 28),2021-116B,2026-06-11T05:33:08.825760,1.70475898,.00010235,57.1632,341.8351,156.6097,20.6106,0,U,49810,999,2810,0,-.65E-6,0
COSMOS 2557 (706K),2022-075A,2026-06-09T03:09:24.236064,2.13102144,.00102294,64.3021,314.7692,275.2232,84.6583,0,U,52984,999,3054,0,-.34E-6,0
COSMOS 2559 (707K),2022-130A,2026-06-10T08:36:50.817600,2.13101643,.00124272,64.2757,314.8093,178.3735,181.6269,0,U,54031,999,2854,0,-.39E-6,0
COSMOS 2564 (761),2022-161A,2026-06-11T03:22:41.160288,2.13102011,.00121159,64.7412,192.9125,224.4932,135.4856,0,U,54377,999,2750,0,.12E-5,0
GPS BIII-6  (PRN 28),2023-009A,2026-06-07T17:40:41.611872,2.00572207,.00062176,55.1217,148.8905,315.6663,226.9396,0,U,55268,999,2505,0,.105E-5,0
BEIDOU-3 G4 (C62),2023-066A,2026-06-10T08:49:24.195360,1.00265779,.00043973,0.4953,329.6081,171.1303,30.2733,0,U,56564,999,1132,0,-.265E-5,0
NVS-01 (IRNSS-1J),2023-076A,2026-06-11T04:22:38.731008,1.00267834,.00030932,2.1811,244.6325,38.1983,171.9232,0,U,56759,999,1105,0,-.317E-5,0
COSMOS 2569 (703K),2023-114A,2026-06-10T16:24:41.063904,2.13103653,.00109174,65.2985,72.8397,296.8943,63.0123,0,U,57517,999,2212,0,-.28E-6,0
